start=new Date('2022-03-21T00:00:00.000Z').valueOf();
sats=[{"SITE":"AFETR","TIME_SYSTEM":"UTC","GP_ID":"199265492","LAUNCH_DATE":"2020-06-04","PERIOD":"95.592","RCS_SIZE":"LARGE","MEAN_MOTION_DOT":"0.00000063","EPOCH":"2022-03-20T16:31:43.021632","SEMIMAJOR_AXIS":"6925.331","REV_AT_EPOCH":"10060","RA_OF_ASC_NODE":"65.9207","MEAN_ELEMENT_THEORY":"SGP4","REF_FRAME":"TEME","COUNTRY_CODE":"US","ARG_OF_PERICENTER":"48.4164","PERIAPSIS":"545.771","TLE_LINE1":"1 45710U 20035BF  22079.68869238  .00000063  00000-0  23148-4 0  9998","APOAPSIS":"548.622","CLASSIFICATION_TYPE":"U","OBJECT_TYPE":"PAYLOAD","BSTAR":"0.00002314800000","MEAN_MOTION_DDOT":"0.0000000000000","MEAN_MOTION":"15.06405640","NORAD_CAT_ID":"45710","ELEMENT_SET_NO":"999","EPHEMERIS_TYPE":"0","OBJECT_ID":"2020-035BF","CENTER_NAME":"EARTH","OBJECT_NAME":"STARLINK-1423","DECAY_DATE":null,"INCLINATION":"53.0547","MEAN_ANOMALY":"311.7001","TLE_LINE2":"2 45710  53.0547  65.9207 0002058  48.4164 311.7001 15.06405640100605","ECCENTRICITY":"0.00020580","FILE":"3367488"},{"DECAY_DATE":null,"OBJECT_NAME":"STARLINK-1433","MEAN_ANOMALY":"306.2444","INCLINATION":"53.0546","TLE_LINE2":"2 45711  53.0546  66.0094 0001906  53.8722 306.2444 15.06397771100595","FILE":"3367488","ECCENTRICITY":"0.00019060","ELEMENT_SET_NO":"999","OBJECT_ID":"2020-035BG","EPHEMERIS_TYPE":"0","CENTER_NAME":"EARTH","OBJECT_TYPE":"PAYLOAD","BSTAR":"-0.00007084200000","MEAN_MOTION_DDOT":"0.0000000000000","MEAN_MOTION":"15.06397771","NORAD_CAT_ID":"45711","ARG_OF_PERICENTER":"53.8722","APOAPSIS":"548.540","TLE_LINE1":"1 45711U 20035BG  22079.67025954 -.00001337  00000-0 -70842-4 0  9997","PERIAPSIS":"545.900","CLASSIFICATION_TYPE":"U","REV_AT_EPOCH":"10059","REF_FRAME":"TEME","MEAN_ELEMENT_THEORY":"SGP4","RA_OF_ASC_NODE":"66.0094","COUNTRY_CODE":"US","SEMIMAJOR_AXIS":"6925.355","PERIOD":"95.592","RCS_SIZE":"LARGE","MEAN_MOTION_DOT":"-0.00001337","EPOCH":"2022-03-20T16:05:10.424256","TIME_SYSTEM":"UTC","SITE":"AFETR","GP_ID":"199266242","LAUNCH_DATE":"2020-06-04"},{"SEMIMAJOR_AXIS":"6925.312","COUNTRY_CODE":"US","REV_AT_EPOCH":"10060","RA_OF_ASC_NODE":"66.0320","MEAN_ELEMENT_THEORY":"SGP4","REF_FRAME":"TEME","LAUNCH_DATE":"2020-06-04","TIME_SYSTEM":"UTC","SITE":"AFETR","GP_ID":"199264990","RCS_SIZE":"LARGE","MEAN_MOTION_DOT":"0.00000684","EPOCH":"2022-03-20T15:59:51.389664","PERIOD":"95.591","CENTER_NAME":"EARTH","ELEMENT_SET_NO":"999","EPHEMERIS_TYPE":"0","OBJECT_ID":"2020-035BH","TLE_LINE2":"2 45712  53.0552  66.0320 0001606  61.5688 298.5463 15.06411960100602","ECCENTRICITY":"0.00016060","FILE":"3367488","OBJECT_NAME":"STARLINK-1434","DECAY_DATE":null,"MEAN_ANOMALY":"298.5463","INCLINATION":"53.0552","CLASSIFICATION_TYPE":"U","ARG_OF_PERICENTER":"61.5688","TLE_LINE1":"1 45712U 20035BH  22079.66656701  .00000684  00000-0  64817-4 0  9994","PERIAPSIS":"546.065","APOAPSIS":"548.289","MEAN_MOTION_DDOT":"0.0000000000000","MEAN_MOTION":"15.06411960","NORAD_CAT_ID":"45712","OBJECT_TYPE":"PAYLOAD","BSTAR":"0.00006481700000"},{"ARG_OF_PERICENTER":"55.6635","APOAPSIS":"548.449","TLE_LINE1":"1 45713U 20035BJ  22079.75319665  .00002615  00000-0  19431-3 0  9997","PERIAPSIS":"545.893","CLASSIFICATION_TYPE":"U","OBJECT_TYPE":"PAYLOAD","BSTAR":"0.00019431000000","MEAN_MOTION_DDOT":"0.0000000000000","MEAN_MOTION":"15.06413832","NORAD_CAT_ID":"45713","ELEMENT_SET_NO":"999","EPHEMERIS_TYPE":"0","OBJECT_ID":"2020-035BJ","CENTER_NAME":"EARTH","DECAY_DATE":null,"OBJECT_NAME":"STARLINK-1436","MEAN_ANOMALY":"304.4528","INCLINATION":"53.0537","TLE_LINE2":"2 45713  53.0537  85.6322 0001845  55.6635 304.4528 15.06413832100324","FILE":"3367488","ECCENTRICITY":"0.00018450","TIME_SYSTEM":"UTC","SITE":"AFETR","GP_ID":"199265240","LAUNCH_DATE":"2020-06-04","PERIOD":"95.591","RCS_SIZE":"LARGE","MEAN_MOTION_DOT":"0.00002615","EPOCH":"2022-03-20T18:04:36.190560","SEMIMAJOR_AXIS":"6925.306","REV_AT_EPOCH":"10032","REF_FRAME":"TEME","RA_OF_ASC_NODE":"85.6322","MEAN_ELEMENT_THEORY":"SGP4","COUNTRY_CODE":"US"},{"OBJECT_NAME":"STARLINK-1437","DECAY_DATE":null,"INCLINATION":"53.0538","MEAN_ANOMALY":"303.4146","TLE_LINE2":"2 45714  53.0538  65.9774 0001827  56.7018 303.4146 15.06419323100602","ECCENTRICITY":"0.00018270","FILE":"3367488","ELEMENT_SET_NO":"999","EPHEMERIS_TYPE":"0","OBJECT_ID":"2020-035BK","CENTER_NAME":"EARTH","OBJECT_TYPE":"PAYLOAD","BSTAR":"0.00044136000000","MEAN_MOTION_DDOT":"0.0000000000000","MEAN_MOTION":"15.06419323","NORAD_CAT_ID":"45714","ARG_OF_PERICENTER":"56.7018","TLE_LINE1":"1 45714U 20035BK  22079.67763914  .00006302  00000-0  44136-3 0  9996","PERIAPSIS":"545.889","APOAPSIS":"548.420","CLASSIFICATION_TYPE":"U","REV_AT_EPOCH":"10060","RA_OF_ASC_NODE":"65.9774","MEAN_ELEMENT_THEORY":"SGP4","REF_FRAME":"TEME","COUNTRY_CODE":"US","SEMIMAJOR_AXIS":"6925.289","PERIOD":"95.591","RCS_SIZE":"LARGE","EPOCH":"2022-03-20T16:15:48.021696","MEAN_MOTION_DOT":"0.00006302","SITE":"AFETR","TIME_SYSTEM":"UTC","GP_ID":"199265992","LAUNCH_DATE":"2020-06-04"},{"MEAN_ELEMENT_THEORY":"SGP4","RA_OF_ASC_NODE":"265.0281","REF_FRAME":"TEME","REV_AT_EPOCH":"9768","COUNTRY_CODE":"US","SEMIMAJOR_AXIS":"6925.363","PERIOD":"95.592","MEAN_MOTION_DOT":"-0.00000123","EPOCH":"2022-03-20T21:18:19.446912","RCS_SIZE":"LARGE","GP_ID":"199266243","TIME_SYSTEM":"UTC","SITE":"AFETR","LAUNCH_DATE":"2020-06-13","MEAN_ANOMALY":"298.0970","INCLINATION":"53.0550","OBJECT_NAME":"STARLINK-1461","DECAY_DATE":null,"FILE":"3367488","ECCENTRICITY":"0.00016070","TLE_LINE2":"2 45730  53.0550 265.0281 0001607  62.0181 298.0970 15.06395284 97683","EPHEMERIS_TYPE":"0","OBJECT_ID":"2020-038A","ELEMENT_SET_NO":"999","CENTER_NAME":"EARTH","BSTAR":"0.00001063400000","OBJECT_TYPE":"PAYLOAD","NORAD_CAT_ID":"45730","MEAN_MOTION":"15.06395284","MEAN_MOTION_DDOT":"0.0000000000000","TLE_LINE1":"1 45730U 20038A   22079.88772508 -.00000123  00000-0  10634-4 0  9992","PERIAPSIS":"546.115","APOAPSIS":"548.341","ARG_OF_PERICENTER":"62.0181","CLASSIFICATION_TYPE":"U"},{"SEMIMAJOR_AXIS":"6925.322","COUNTRY_CODE":"US","RA_OF_ASC_NODE":"265.2659","MEAN_ELEMENT_THEORY":"SGP4","REF_FRAME":"TEME","REV_AT_EPOCH":"9766","LAUNCH_DATE":"2020-06-13","GP_ID":"199264991","SITE":"AFETR","TIME_SYSTEM":"UTC","EPOCH":"2022-03-20T20:04:01.155072","MEAN_MOTION_DOT":"0.00001270","RCS_SIZE":"LARGE","PERIOD":"95.592","CENTER_NAME":"EARTH","EPHEMERIS_TYPE":"0","OBJECT_ID":"2020-038B","ELEMENT_SET_NO":"999","ECCENTRICITY":"0.00013390","FILE":"3367488","TLE_LINE2":"2 45731  53.0529 265.2659 0001339  76.8403 283.2735 15.06408705 97669","MEAN_ANOMALY":"283.2735","INCLINATION":"53.0529","OBJECT_NAME":"STARLINK-1465","DECAY_DATE":null,"CLASSIFICATION_TYPE":"U","PERIAPSIS":"546.260","TLE_LINE1":"1 45731U 20038B   22079.83612448  .00001270  00000-0  10414-3 0  9992","APOAPSIS":"548.114","ARG_OF_PERICENTER":"76.8403","NORAD_CAT_ID":"45731","MEAN_MOTION":"15.06408705","MEAN_MOTION_DDOT":"0.0000000000000","BSTAR":"0.00010414000000","OBJECT_TYPE":"PAYLOAD"},{"FILE":"3367488","ECCENTRICITY":"0.00016780","TLE_LINE2":"2 45732  53.0533 265.0113 0001678  60.9452 299.1705 15.06423124 97678","MEAN_ANOMALY":"299.1705","INCLINATION":"53.0533","DECAY_DATE":null,"OBJECT_NAME":"STARLINK-1466","CENTER_NAME":"EARTH","OBJECT_ID":"2020-038C","EPHEMERIS_TYPE":"0","ELEMENT_SET_NO":"999","NORAD_CAT_ID":"45732","MEAN_MOTION":"15.06423124","MEAN_MOTION_DDOT":"0.0000000000000","BSTAR":"0.00043168000000","OBJECT_TYPE":"PAYLOAD","CLASSIFICATION_TYPE":"U","APOAPSIS":"548.305","TLE_LINE1":"1 45732U 20038C   22079.89142001  .00006158  00000-0  43168-3 0  9994","PERIAPSIS":"545.981","ARG_OF_PERICENTER":"60.9452","COUNTRY_CODE":"US","REF_FRAME":"TEME","RA_OF_ASC_NODE":"265.0113","MEAN_ELEMENT_THEORY":"SGP4","REV_AT_EPOCH":"9767","SEMIMAJOR_AXIS":"6925.278","EPOCH":"2022-03-20T21:23:38.688864","MEAN_MOTION_DOT":"0.00006158","RCS_SIZE":"LARGE","PERIOD":"95.591","LAUNCH_DATE":"2020-06-13","GP_ID":"199265241","SITE":"AFETR","TIME_SYSTEM":"UTC"},{"REV_AT_EPOCH":"9767","REF_FRAME":"TEME","RA_OF_ASC_NODE":"264.9929","MEAN_ELEMENT_THEORY":"SGP4","COUNTRY_CODE":"US","SEMIMAJOR_AXIS":"6925.352","PERIOD":"95.592","RCS_SIZE":"LARGE","EPOCH":"2022-03-20T21:34:14.973024","MEAN_MOTION_DOT":"0.00000897","TIME_SYSTEM":"UTC","SITE":"AFETR","GP_ID":"199265993","LAUNCH_DATE":"2020-06-13","DECAY_DATE":null,"OBJECT_NAME":"STARLINK-1467","MEAN_ANOMALY":"295.5936","INCLINATION":"53.0523","TLE_LINE2":"2 45733  53.0523 264.9929 0001469  64.5205 295.5936 15.06398786 97676","ECCENTRICITY":"0.00014690","FILE":"3367488","ELEMENT_SET_NO":"999","EPHEMERIS_TYPE":"0","OBJECT_ID":"2020-038D","CENTER_NAME":"EARTH","OBJECT_TYPE":"PAYLOAD","BSTAR":"0.00007911400000","MEAN_MOTION_DDOT":"0.0000000000000","NORAD_CAT_ID":"45733","MEAN_MOTION":"15.06398786","ARG_OF_PERICENTER":"64.5205","APOAPSIS":"548.235","PERIAPSIS":"546.200","TLE_LINE1":"1 45733U 20038D   22079.89878441  .00000897  00000-0  79114-4 0  9994","CLASSIFICATION_TYPE":"U"},{"COUNTRY_CODE":"US","REV_AT_EPOCH":"9766","MEAN_ELEMENT_THEORY":"SGP4","RA_OF_ASC_NODE":"265.3637","REF_FRAME":"TEME","SEMIMAJOR_AXIS":"6925.373","RCS_SIZE":"LARGE","EPOCH":"2022-03-20T19:32:10.324032","MEAN_MOTION_DOT":"0.00000851","PERIOD":"95.593","LAUNCH_DATE":"2020-06-13","TIME_SYSTEM":"UTC","SITE":"AFETR","GP_ID":"199265744","TLE_LINE2":"2 45734  53.0554 265.3637 0001754  57.1969 302.9189 15.06392099 97667","ECCENTRICITY":"0.00017540","FILE":"3367488","OBJECT_NAME":"STARLINK-1468","DECAY_DATE":null,"INCLINATION":"53.0554","MEAN_ANOMALY":"302.9189","CENTER_NAME":"EARTH","ELEMENT_SET_NO":"999","OBJECT_ID":"2020-038E","EPHEMERIS_TYPE":"0","MEAN_MOTION_DDOT":"0.0000000000000","NORAD_CAT_ID":"45734","MEAN_MOTION":"15.06392099","OBJECT_TYPE":"PAYLOAD","BSTAR":"0.00007601500000","CLASSIFICATION_TYPE":"U","ARG_OF_PERICENTER":"57.1969","PERIAPSIS":"546.023","TLE_LINE1":"1 45734U 20038E   22079.81400838  .00000851  00000-0  76015-4 0  9995","APOAPSIS":"548.452"}];
